[{"OBJECT_NAME":"SL-16 R/B","OBJECT_ID":"1993-059B","EPOCH":"2026-04-02T02:55:05.306016","MEAN_MOTION":14.17234539,"ECCENTRICITY":0.00171813,"INCLINATION":70.9909,"RA_OF_ASC_NODE":321.7162,"ARG_OF_PERICENTER":182.0868,"MEAN_ANOMALY":178.0187,"EPHEMERIS_TYPE":0,"CLASSIFICATION_TYPE":"U","NORAD_CAT_ID":22803,"ELEMENT_SET_NO":999,"REV_AT_EPOCH":68285,"BSTAR":2.859713e-6,"MEAN_MOTION_DOT":-4.2e-7,"MEAN_MOTION_DDOT":0},{"OBJECT_NAME":"ARIANE 40 R/B","OBJECT_ID":"1993-061H","EPOCH":"2026-04-02T03:52:36.797664","MEAN_MOTION":14.32873932,"ECCENTRICITY":0.00102399,"INCLINATION":98.4873,"RA_OF_ASC_NODE":160.5811,"ARG_OF_PERICENTER":208.921,"MEAN_ANOMALY":151.1407,"EPHEMERIS_TYPE":0,"CLASSIFICATION_TYPE":"U","NORAD_CAT_ID":22830,"ELEMENT_SET_NO":999,"REV_AT_EPOCH":69746,"BSTAR":0.00012778301,"MEAN_MOTION_DOT":3.06e-6,"MEAN_MOTION_DDOT":0},{"OBJECT_NAME":"COSMOS 2278","OBJECT_ID":"1994-023A","EPOCH":"2026-04-02T06:57:47.695104","MEAN_MOTION":14.14374769,"ECCENTRICITY":0.00092922,"INCLINATION":71.0507,"RA_OF_ASC_NODE":125.7235,"ARG_OF_PERICENTER":337.9903,"MEAN_ANOMALY":22.0819,"EPHEMERIS_TYPE":0,"CLASSIFICATION_TYPE":"U","NORAD_CAT_ID":23087,"ELEMENT_SET_NO":999,"REV_AT_EPOCH":64814,"BSTAR":-4.951386e-6,"MEAN_MOTION_DOT":-5.7e-7,"MEAN_MOTION_DDOT":0},{"OBJECT_NAME":"SL-16 R/B","OBJECT_ID":"1994-023B","EPOCH":"2026-04-02T06:07:37.445664","MEAN_MOTION":14.15018536,"ECCENTRICITY":0.00055421,"INCLINATION":71.0029,"RA_OF_ASC_NODE":21.3957,"ARG_OF_PERICENTER":264.6723,"MEAN_ANOMALY":95.3767,"EPHEMERIS_TYPE":0,"CLASSIFICATION_TYPE":"U","NORAD_CAT_ID":23088,"ELEMENT_SET_NO":999,"REV_AT_EPOCH":64942,"BSTAR":0.00015489581,"MEAN_MOTION_DOT":2.52e-6,"MEAN_MOTION_DDOT":0},{"OBJECT_NAME":"SL-16 R/B","OBJECT_ID":"1994-074B","EPOCH":"2026-04-02T07:42:23.452992","MEAN_MOTION":14.79435987,"ECCENTRICITY":0.00075838,"INCLINATION":97.7073,"RA_OF_ASC_NODE":122.1783,"ARG_OF_PERICENTER":135.5614,"MEAN_ANOMALY":235.4836,"EPHEMERIS_TYPE":0,"CLASSIFICATION_TYPE":"U","NORAD_CAT_ID":23343,"ELEMENT_SET_NO":999,"REV_AT_EPOCH":69074,"BSTAR":0.00010156109,"MEAN_MOTION_DOT":7.09e-6,"MEAN_MOTION_DDOT":0},{"OBJECT_NAME":"SL-16 R/B","OBJECT_ID":"1994-077B","EPOCH":"2026-04-02T00:22:36.889536","MEAN_MOTION":14.15568586,"ECCENTRICITY":0.0001707,"INCLINATION":70.9826,"RA_OF_ASC_NODE":303.4171,"ARG_OF_PERICENTER":193.2014,"MEAN_ANOMALY":166.9065,"EPHEMERIS_TYPE":0,"CLASSIFICATION_TYPE":"U","NORAD_CAT_ID":23405,"ELEMENT_SET_NO":999,"REV_AT_EPOCH":61953,"BSTAR":-6.8667548e-5,"MEAN_MOTION_DOT":-1.82e-6,"MEAN_MOTION_DDOT":0},{"OBJECT_NAME":"ARIANE 40+ R/B","OBJECT_ID":"1995-021B","EPOCH":"2026-04-02T05:37:57.190080","MEAN_MOTION":14.39789935,"ECCENTRICITY":0.00078598,"INCLINATION":98.4456,"RA_OF_ASC_NODE":163.3935,"ARG_OF_PERICENTER":75.8671,"MEAN_ANOMALY":334.8625,"EPHEMERIS_TYPE":0,"CLASSIFICATION_TYPE":"U","NORAD_CAT_ID":23561,"ELEMENT_SET_NO":999,"REV_AT_EPOCH":62263,"BSTAR":0.00014866618,"MEAN_MOTION_DOT":4.23e-6,"MEAN_MOTION_DDOT":0},{"OBJECT_NAME":"SL-16 R/B","OBJECT_ID":"1995-058B","EPOCH":"2026-04-02T07:21:21.970656","MEAN_MOTION":14.15497974,"ECCENTRICITY":0.00102374,"INCLINATION":71.0194,"RA_OF_ASC_NODE":130.6747,"ARG_OF_PERICENTER":82.3748,"MEAN_ANOMALY":277.8537,"EPHEMERIS_TYPE":0,"CLASSIFICATION_TYPE":"U","NORAD_CAT_ID":23705,"ELEMENT_SET_NO":999,"REV_AT_EPOCH":57119,"BSTAR":-3.8572428e-5,"MEAN_MOTION_DOT":-1.23e-6,"MEAN_MOTION_DDOT":0},{"OBJECT_NAME":"SL-16 R/B","OBJECT_ID":"1996-051B","EPOCH":"2026-04-02T07:47:15.408960","MEAN_MOTION":14.12422819,"ECCENTRICITY":0.00132164,"INCLINATION":70.7582,"RA_OF_ASC_NODE":125.2147,"ARG_OF_PERICENTER":109.4001,"MEAN_ANOMALY":250.8548,"EPHEMERIS_TYPE":0,"CLASSIFICATION_TYPE":"U","NORAD_CAT_ID":24298,"ELEMENT_SET_NO":999,"REV_AT_EPOCH":52498,"BSTAR":0.00010941717,"MEAN_MOTION_DOT":1.53e-6,"MEAN_MOTION_DDOT":0},{"OBJECT_NAME":"ORBVIEW 2 (SEASTAR)","OBJECT_ID":"1997-037A","EPOCH":"2026-04-02T07:48:47.927808","MEAN_MOTION":14.35512172,"ECCENTRICITY":0.00021724,"INCLINATION":98.8607,"RA_OF_ASC_NODE":257.2688,"ARG_OF_PERICENTER":18.6564,"MEAN_ANOMALY":341.47,"EPHEMERIS_TYPE":0,"CLASSIFICATION_TYPE":"U","NORAD_CAT_ID":24883,"ELEMENT_SET_NO":999,"REV_AT_EPOCH":51186,"BSTAR":0.00015801741,"MEAN_MOTION_DOT":4.08e-6,"MEAN_MOTION_DDOT":0},{"OBJECT_NAME":"SL-16 R/B","OBJECT_ID":"1998-043G","EPOCH":"2026-04-02T02:18:09.534816","MEAN_MOTION":14.26055311,"ECCENTRICITY":0.00090308,"INCLINATION":98.8295,"RA_OF_ASC_NODE":45.631,"ARG_OF_PERICENTER":311.1745,"MEAN_ANOMALY":48.8655,"EPHEMERIS_TYPE":0,"CLASSIFICATION_TYPE":"U","NORAD_CAT_ID":25400,"ELEMENT_SET_NO":999,"REV_AT_EPOCH":44232,"BSTAR":5.2249273e-5,"MEAN_MOTION_DOT":7.9e-7,"MEAN_MOTION_DDOT":0},{"OBJECT_NAME":"SL-16 R/B","OBJECT_ID":"1998-045B","EPOCH":"2026-04-02T07:20:23.943552","MEAN_MOTION":14.16193239,"ECCENTRICITY":0.00081609,"INCLINATION":71.0092,"RA_OF_ASC_NODE":131.9123,"ARG_OF_PERICENTER":332.9613,"MEAN_ANOMALY":27.1084,"EPHEMERIS_TYPE":0,"CLASSIFICATION_TYPE":"U","NORAD_CAT_ID":25407,"ELEMENT_SET_NO":999,"REV_AT_EPOCH":43044,"BSTAR":3.959307e-6,"MEAN_MOTION_DOT":-4.0e-7,"MEAN_MOTION_DDOT":0},{"OBJECT_NAME":"ISS (ZARYA)","OBJECT_ID":"1998-067A","EPOCH":"2026-04-02T03:12:11.610144","MEAN_MOTION":15.48713693,"ECCENTRICITY":0.00062399,"INCLINATION":51.6331,"RA_OF_ASC_NODE":316.4579,"ARG_OF_PERICENTER":262.1298,"MEAN_ANOMALY":97.8982,"EPHEMERIS_TYPE":0,"CLASSIFICATION_TYPE":"U","NORAD_CAT_ID":25544,"ELEMENT_SET_NO":999,"REV_AT_EPOCH":55996,"BSTAR":0.00020754706,"MEAN_MOTION_DOT":0.00010892,"MEAN_MOTION_DDOT":0},{"OBJECT_NAME":"CZ-4B R/B","OBJECT_ID":"1999-025C","EPOCH":"2026-04-02T03:49:55.233120","MEAN_MOTION":14.18270029,"ECCENTRICITY":0.00359684,"INCLINATION":98.6577,"RA_OF_ASC_NODE":135.8802,"ARG_OF_PERICENTER":277.553,"MEAN_ANOMALY":151.9391,"EPHEMERIS_TYPE":0,"CLASSIFICATION_TYPE":"U","NORAD_CAT_ID":25732,"ELEMENT_SET_NO":999,"REV_AT_EPOCH":39149,"BSTAR":5.7732443e-5,"MEAN_MOTION_DOT":7.6e-7,"MEAN_MOTION_DDOT":0},{"OBJECT_NAME":"OKEAN-O","OBJECT_ID":"1999-039A","EPOCH":"2026-04-02T04:10:48.586944","MEAN_MOTION":14.80374527,"ECCENTRICITY":8.967e-5,"INCLINATION":97.9394,"RA_OF_ASC_NODE":151.8213,"ARG_OF_PERICENTER":100.488,"MEAN_ANOMALY":259.6433,"EPHEMERIS_TYPE":0,"CLASSIFICATION_TYPE":"U","NORAD_CAT_ID":25860,"ELEMENT_SET_NO":999,"REV_AT_EPOCH":43786,"BSTAR":0.00013864793,"MEAN_MOTION_DOT":1.006e-5,"MEAN_MOTION_DDOT":0},{"OBJECT_NAME":"SL-16 R/B","OBJECT_ID":"1999-039B","EPOCH":"2026-04-02T03:10:03.414144","MEAN_MOTION":14.8176377,"ECCENTRICITY":0.00148924,"INCLINATION":97.9915,"RA_OF_ASC_NODE":151.1878,"ARG_OF_PERICENTER":176.16,"MEAN_ANOMALY":183.973,"EPHEMERIS_TYPE":0,"CLASSIFICATION_TYPE":"U","NORAD_CAT_ID":25861,"ELEMENT_SET_NO":999,"REV_AT_EPOCH":44033,"BSTAR":9.2283216e-5,"MEAN_MOTION_DOT":6.75e-6,"MEAN_MOTION_DDOT":0},{"OBJECT_NAME":"DELTA 2 R/B","OBJECT_ID":"1999-041E","EPOCH":"2026-04-02T07:09:26.583840","MEAN_MOTION":14.11893349,"ECCENTRICITY":0.05026283,"INCLINATION":51.7607,"RA_OF_ASC_NODE":206.9697,"ARG_OF_PERICENTER":58.0496,"MEAN_ANOMALY":306.8294,"EPHEMERIS_TYPE":0,"CLASSIFICATION_TYPE":"U","NORAD_CAT_ID":25876,"ELEMENT_SET_NO":999,"REV_AT_EPOCH":36636,"BSTAR":0.00021051038,"MEAN_MOTION_DOT":1.064e-5,"MEAN_MOTION_DDOT":0}]
